satname,norad_id,inclination_deg,eccentricity,mean_motion_rev_per_day,perigee_km,apogee_km,l1,l2
STARLINK-1540,46051,53.158,0.0001421,15.30191621,474.2662228329955,476.2139526013243,1 46051U 20055AA  26109.83223973  .00001020  00000+0  46585-4 0  9997,2 46051  53.1580 282.7397 0001421  84.3502 275.7660 15.30191621315380
STARLINK-1541,46052,53.1597,0.0001475,15.53712499,404.89717496357025,406.8984652354984,1 46052U 20055AB  26110.66668981  .00204931  00000+0  30738-2 0  9990,2 46052  53.1597 277.6190 0001475  84.0549 184.8740 15.53712499  5865
STARLINK-1543,46053,53.1588,0.0001141,15.30197436,474.4407567272192,476.0046934164802,1 46053U 20055AC  26109.89334859  .00001621  00000+0  66862-4 0  9998,2 46053  53.1588 282.5219 0001141  74.7510 285.3616 15.30197436315380
STARLINK-1548,46054,53.1601,6.57e-05,15.30224096,474.69286354660744,475.59338455490706,1 46054U 20055AD  26110.48853960  .00008356  00000+0  29371-3 0  9990,2 46054  53.1601 279.7598 0000657  38.9652 321.1396 15.30224096315472
STARLINK-1554,46055,53.1602,0.0001281,15.31699502,469.8641384048815,471.6188210713908,1 46055U 20055AE  26109.89006606  .00000329  00000+0  22371-4 0  9997,2 46055  53.1602 282.5720 0001281  76.0928 284.0216 15.31699502315383
STARLINK-1564,46058,53.1591,0.000145,15.30191003,474.24819302594733,476.2356729165085,1 46058U 20055AH  26110.48441842  .00003027  00000+0  11432-3 0  9995,2 46058  53.1591 280.2356 0001450  87.5463 272.5704 15.30191003315467
STARLINK-1570,46059,53.1606,0.0001382,15.31698637,469.7975428984846,471.69057362298827,1 46059U 20055AJ  26110.44001976  .00001323  00000+0  54396-4 0  9996,2 46059  53.1606 279.8932 0001382  87.4751 272.6408 15.31698637315426
STARLINK-1572,46060,53.1572,0.0001837,15.30191645,473.9810506989843,476.49898141468384,1 46060U 20055AK  26110.46541440  .00003242  00000+0  12159-3 0  9997,2 46060  53.1572 280.0692 0001837 102.4335 257.6872 15.30191645315433
STARLINK-1573,46061,53.155,0.0001377,15.31702072,469.79072919669215,471.6769082201654,1 46061U 20055AL  26110.49128456  .00003735  00000+0  13206-3 0  9990,2 46061  53.1550 279.6237 0001377  83.9440 276.1719 15.31702072315471
STARLINK-1577,46063,53.1624,0.0001044,15.31696064,470.0367042787293,471.46675224519004,1 46063U 20055AN  26110.19299427 -.00000333  00000+0  10264-5 0  9991,2 46063  53.1624 281.0044 0001044  96.4585 263.6535 15.31696064315423
STARLINK-1583,46064,53.1566,0.0001164,15.30194209,474.43462816247484,476.0300925495667,1 46064U 20055AP  26110.49487036  .00001305  00000+0  56179-4 0  9993,2 46064  53.1566 279.6847 0001164  88.5934 271.5201 15.30194209315461
STARLINK-1536,46070,53.1464,0.0001272,15.29256599,477.1612378762811,478.9054476114761,1 46070U 20055AV  26110.66668981  .00028092  00000+0  98515-3 0  9990,2 46070  53.1464 266.5422 0001272  74.3250  13.5326 15.29256599  5796
STARLINK-1542,46073,53.0673,0.0001313,15.10123978,534.9137601218481,536.7293656404609,1 46073U 20055AY  26110.66668981  .00014682  00000+0  90629-3 0  9991,2 46073  53.0673 268.1409 0001313 125.5817 213.5915 15.10123978  5742
STARLINK-1549,46074,53.0504,5.57e-05,15.25770922,488.0890079798028,488.85394816426106,1 46074U 20055AZ  26110.45379178  .00011732  00000+0  46593-3 0  9990,2 46074  53.0504 266.9631 0000557  89.4401 270.6661 15.25770922315621
STARLINK-1551,46075,53.1563,0.0001396,15.29353342,476.7871227554233,478.70128478751667,1 46075U 20055BA  26110.40549737  .00000257  00000+0  21234-4 0  9992,2 46075  53.1563 267.2469 0001396  86.2147 273.9013 15.29353342315629
STARLINK-1552,46076,53.1606,0.0001034,15.30192395,474.5291377206495,475.94641562446577,1 46076U 20055BB  26110.66668981 -.00008716  00000+0 -28257-3 0  9995,2 46076  53.1606 265.9961 0001034  67.7799 174.1230 15.30192395  5806
STARLINK-1559,46077,53.0227,0.000103,15.33755975,463.91328422760307,465.3228917757315,1 46077U 20055BC  26110.38433423  .00025727  00000+0  78569-3 0  9996,2 46077  53.0227 239.2110 0001030 242.0831 118.0065 15.33755975315973
STARLINK-1566,46079,53.1577,0.000106,15.29379778,476.9384839024551,478.3919139686295,1 46079U 20055BE  26109.72542279  .00004274  00000+0  16023-3 0  9995,2 46079  53.1577 270.3511 0001060  92.9735 267.1387 15.29379778315525
STARLINK-1568,46080,53.0586,0.0003687,15.49995952,414.2326292352809,419.24316998625454,1 46080U 20055BF  26110.58258736  .00033813  00000+0  59861-3 0  9993,2 46080  53.0586 192.5385 0003687 297.8132  62.2502 15.49995952316685
STARLINK-1578,46082,53.1494,0.0001217,15.29362158,476.88349908302644,478.55221415512733,1 46082U 20055BH  26110.66668981 -.00010796  00000+0 -36226-3 0  9998,2 46082  53.1494 266.3886 0001217  85.8715 103.4787 15.29362158  5795
STARLINK-1579,46083,53.1621,0.0001245,15.30186863,474.4010471978372,476.10754163014644,1 46083U 20055BJ  26110.43636839  .00012338  00000+0  42816-3 0  9995,2 46083  53.1621 267.1223 0001245  95.4163 264.6980 15.30186863315627
STARLINK-1593,46119,53.0354,0.0003767,15.95742549,283.73567933253435,288.75662559960165,1 46119U 20057C   26110.66668981  .00478543  10439-3  11622-2 0  9990,2 46119  53.0354  58.5279 0003767 113.1396  60.3662 15.95742549  5869
STARLINK-1621,46127,53.0362,0.000356,16.04245755,260.3117347417128,265.0399935009673,1 46127U 20057L   26110.58849605  .00672096  22872-3  10022-2 0  9990,2 46127  53.0362  30.8320 0003560 156.1035 204.0162 16.04245755313744
STARLINK-1622,46128,53.0231,0.0001325,15.71966224,352.38611209593273,354.1699370774486,1 46128U 20057M   26110.44212615  .00069493  00000+0  52199-3 0  9999,2 46128  53.0231  18.1961 0001325  42.6887 317.4232 15.71966224313911
STARLINK-1623,46129,53.0477,0.0002502,15.61646472,381.2091007294448,384.5923240007114,1 46129U 20057N   26110.54764088  .00093352  00000+0  10581-2 0  9996,2 46129  53.0477  52.9354 0002502  39.6907 320.4289 15.61646472313446
STARLINK-1624,46130,53.0378,0.0007198,15.82726599,317.9104552880881,327.55702880833996,1 46130U 20057P   26110.66668981  .00195690  00000+0  89112-3 0  9991,2 46130  53.0378  23.2421 0007198 126.4572 232.7828 15.82726599  6000
STARLINK-1596,46141,53.0399,0.000218,15.51483629,410.9132511482276,413.87392248407923,1 46141U 20057AA  26110.19166893  .00041235  00000+0  69030-3 0  9998,2 46141  53.0399  32.1431 0002180 113.8524 246.2713 15.51483629313709
STARLINK-1597,46142,53.0452,0.0005026,15.65407953,368.67309545966054,375.458399261307,1 46142U 20057AB  26110.33140343  .00061383  00000+0  60423-3 0  9990,2 46142  53.0452  93.7297 0005026  10.9367 349.1756 15.65407953312842
